[{"OBJECT_NAME":"APRIZESAT 3","OBJECT_ID":"2009-041F","EPOCH":"2026-03-09T21:53:07.275264","MEAN_MOTION":14.95902996,"ECCENTRICITY":0.00628853,"INCLINATION":98.1904,"RA_OF_ASC_NODE":217.4844,"ARG_OF_PERICENTER":35.8471,"MEAN_ANOMALY":324.6944,"EPHEMERIS_TYPE":0,"CLASSIFICATION_TYPE":"U","NORAD_CAT_ID":35686,"ELEMENT_SET_NO":999,"REV_AT_EPOCH":90153,"BSTAR":0.00014818153,"MEAN_MOTION_DOT":1.656e-5,"MEAN_MOTION_DDOT":0},{"OBJECT_NAME":"STARLINK-4194","OBJECT_ID":"2022-076Q","EPOCH":"2026-03-09T08:35:47.336928","MEAN_MOTION":15.08836645,"ECCENTRICITY":0.000135,"INCLINATION":53.2168,"RA_OF_ASC_NODE":95.6096,"ARG_OF_PERICENTER":100.9151,"MEAN_ANOMALY":259.1993,"EPHEMERIS_TYPE":0,"CLASSIFICATION_TYPE":"U","NORAD_CAT_ID":53000,"ELEMENT_SET_NO":999,"REV_AT_EPOCH":20279,"BSTAR":-2.0275785e-5,"MEAN_MOTION_DOT":-6.11e-6,"MEAN_MOTION_DDOT":0}]
